[{"OBJECT_NAME":"STARLINK-36942","OBJECT_ID":"2026-040R","EPOCH":"2026-03-10T18:00:01.999296","MEAN_MOTION":16.04408726,"ECCENTRICITY":0.0001127,"INCLINATION":97.2769,"RA_OF_ASC_NODE":18.0376,"ARG_OF_PERICENTER":82.0516,"MEAN_ANOMALY":72.5939,"EPHEMERIS_TYPE":0,"CLASSIFICATION_TYPE":"U","NORAD_CAT_ID":68030,"ELEMENT_SET_NO":999,"REV_AT_EPOCH":259,"BSTAR":-0.0016451,"MEAN_MOTION_DOT":-0.01073215,"MEAN_MOTION_DDOT":0.00039316},{"OBJECT_NAME":"STARLINK-36913","OBJECT_ID":"2026-040S","EPOCH":"2026-03-10T18:00:01.999296","MEAN_MOTION":16.0453209,"ECCENTRICITY":0.0001312,"INCLINATION":97.2768,"RA_OF_ASC_NODE":18.0387,"ARG_OF_PERICENTER":93.7021,"MEAN_ANOMALY":63.949,"EPHEMERIS_TYPE":0,"CLASSIFICATION_TYPE":"U","NORAD_CAT_ID":68031,"ELEMENT_SET_NO":999,"REV_AT_EPOCH":259,"BSTAR":-0.0016436,"MEAN_MOTION_DOT":-0.0108017,"MEAN_MOTION_DDOT":0.00039847},{"OBJECT_NAME":"STARLINK-36935","OBJECT_ID":"2026-040T","EPOCH":"2026-03-10T18:00:01.999296","MEAN_MOTION":16.05357032,"ECCENTRICITY":0.0001063,"INCLINATION":97.2764,"RA_OF_ASC_NODE":18.0471,"ARG_OF_PERICENTER":87.3782,"MEAN_ANOMALY":90.8309,"EPHEMERIS_TYPE":0,"CLASSIFICATION_TYPE":"U","NORAD_CAT_ID":68032,"ELEMENT_SET_NO":999,"REV_AT_EPOCH":269,"BSTAR":-0.0015244,"MEAN_MOTION_DOT":-0.01053145,"MEAN_MOTION_DDOT":0.00038402},{"OBJECT_NAME":"STARLINK-36947","OBJECT_ID":"2026-040U","EPOCH":"2026-03-10T18:00:01.999296","MEAN_MOTION":16.04610767,"ECCENTRICITY":0.0001091,"INCLINATION":97.2767,"RA_OF_ASC_NODE":18.0398,"ARG_OF_PERICENTER":83.7749,"MEAN_ANOMALY":76.3576,"EPHEMERIS_TYPE":0,"CLASSIFICATION_TYPE":"U","NORAD_CAT_ID":68033,"ELEMENT_SET_NO":999,"REV_AT_EPOCH":259,"BSTAR":-0.0015862,"MEAN_MOTION_DOT":-0.0104765,"MEAN_MOTION_DDOT":0.00037692},{"OBJECT_NAME":"STARLINK-36939","OBJECT_ID":"2026-040V","EPOCH":"2026-03-10T18:00:01.999296","MEAN_MOTION":16.05075036,"ECCENTRICITY":0.0001115,"INCLINATION":97.2772,"RA_OF_ASC_NODE":18.0445,"ARG_OF_PERICENTER":93.1699,"MEAN_ANOMALY":78.2129,"EPHEMERIS_TYPE":0,"CLASSIFICATION_TYPE":"U","NORAD_CAT_ID":68034,"ELEMENT_SET_NO":999,"REV_AT_EPOCH":259,"BSTAR":-0.0015523,"MEAN_MOTION_DOT":-0.0105425,"MEAN_MOTION_DDOT":0.00038346},{"OBJECT_NAME":"STARLINK-36943","OBJECT_ID":"2026-040W","EPOCH":"2026-03-10T18:00:01.999296","MEAN_MOTION":16.05658676,"ECCENTRICITY":0.0001032,"INCLINATION":97.2774,"RA_OF_ASC_NODE":18.053,"ARG_OF_PERICENTER":89.1187,"MEAN_ANOMALY":100.4702,"EPHEMERIS_TYPE":0,"CLASSIFICATION_TYPE":"U","NORAD_CAT_ID":68035,"ELEMENT_SET_NO":999,"REV_AT_EPOCH":264,"BSTAR":-0.0015201,"MEAN_MOTION_DOT":-0.0106947,"MEAN_MOTION_DDOT":0.00039656},{"OBJECT_NAME":"STARLINK-36906","OBJECT_ID":"2026-040X","EPOCH":"2026-03-10T18:00:01.999296","MEAN_MOTION":16.04975022,"ECCENTRICITY":0.0001057,"INCLINATION":97.2768,"RA_OF_ASC_NODE":18.0434,"ARG_OF_PERICENTER":81.9797,"MEAN_ANOMALY":86.828,"EPHEMERIS_TYPE":0,"CLASSIFICATION_TYPE":"U","NORAD_CAT_ID":68036,"ELEMENT_SET_NO":999,"REV_AT_EPOCH":259,"BSTAR":-0.0015848,"MEAN_MOTION_DOT":-0.01069702,"MEAN_MOTION_DDOT":0.00039344},{"OBJECT_NAME":"STARLINK-36388","OBJECT_ID":"2026-040Y","EPOCH":"2026-03-10T18:00:01.999296","MEAN_MOTION":16.05223209,"ECCENTRICITY":0.0001007,"INCLINATION":97.2772,"RA_OF_ASC_NODE":18.0461,"ARG_OF_PERICENTER":82.9419,"MEAN_ANOMALY":92.1154,"EPHEMERIS_TYPE":0,"CLASSIFICATION_TYPE":"U","NORAD_CAT_ID":68037,"ELEMENT_SET_NO":999,"REV_AT_EPOCH":254,"BSTAR":-0.0015356,"MEAN_MOTION_DOT":-0.01052346,"MEAN_MOTION_DDOT":0.00038287},{"OBJECT_NAME":"STARLINK-36895","OBJECT_ID":"2026-040Z","EPOCH":"2026-03-10T18:00:01.999296","MEAN_MOTION":16.0485917,"ECCENTRICITY":0.000105,"INCLINATION":97.276,"RA_OF_ASC_NODE":18.0418,"ARG_OF_PERICENTER":86.0487,"MEAN_ANOMALY":79.9603,"EPHEMERIS_TYPE":0,"CLASSIFICATION_TYPE":"U","NORAD_CAT_ID":68038,"ELEMENT_SET_NO":999,"REV_AT_EPOCH":259,"BSTAR":-0.0015865,"MEAN_MOTION_DOT":-0.01063466,"MEAN_MOTION_DDOT":0.00038867},{"OBJECT_NAME":"STARLINK-36373","OBJECT_ID":"2026-040AA","EPOCH":"2026-03-10T18:00:01.999296","MEAN_MOTION":16.04728403,"ECCENTRICITY":0.0001077,"INCLINATION":97.2762,"RA_OF_ASC_NODE":18.0407,"ARG_OF_PERICENTER":77.8503,"MEAN_ANOMALY":84.8584,"EPHEMERIS_TYPE":0,"CLASSIFICATION_TYPE":"U","NORAD_CAT_ID":68039,"ELEMENT_SET_NO":999,"REV_AT_EPOCH":254,"BSTAR":-0.0016054,"MEAN_MOTION_DOT":-0.01067695,"MEAN_MOTION_DDOT":0.00039092},{"OBJECT_NAME":"STARLINK-36711","OBJECT_ID":"2026-041A","EPOCH":"2026-03-10T18:00:01.999296","MEAN_MOTION":15.88316622,"ECCENTRICITY":5.72e-5,"INCLINATION":53.1591,"RA_OF_ASC_NODE":56.8911,"ARG_OF_PERICENTER":89.5581,"MEAN_ANOMALY":320.2138,"EPHEMERIS_TYPE":0,"CLASSIFICATION_TYPE":"U","NORAD_CAT_ID":68040,"ELEMENT_SET_NO":999,"REV_AT_EPOCH":254,"BSTAR":-0.005823,"MEAN_MOTION_DOT":-0.01431069,"MEAN_MOTION_DDOT":0},{"OBJECT_NAME":"STARLINK-36825","OBJECT_ID":"2026-041B","EPOCH":"2026-03-10T18:00:01.999296","MEAN_MOTION":15.8860822,"ECCENTRICITY":5.24e-5,"INCLINATION":53.1587,"RA_OF_ASC_NODE":56.8776,"ARG_OF_PERICENTER":95.8309,"MEAN_ANOMALY":320.0124,"EPHEMERIS_TYPE":0,"CLASSIFICATION_TYPE":"U","NORAD_CAT_ID":68041,"ELEMENT_SET_NO":999,"REV_AT_EPOCH":254,"BSTAR":-0.0056881,"MEAN_MOTION_DOT":-0.0142031,"MEAN_MOTION_DDOT":0},{"OBJECT_NAME":"STARLINK-36925","OBJECT_ID":"2026-041C","EPOCH":"2026-03-10T18:00:01.999296","MEAN_MOTION":15.8845936,"ECCENTRICITY":4.54e-5,"INCLINATION":53.1588,"RA_OF_ASC_NODE":56.8842,"ARG_OF_PERICENTER":92.9765,"MEAN_ANOMALY":319.9283,"EPHEMERIS_TYPE":0,"CLASSIFICATION_TYPE":"U","NORAD_CAT_ID":68042,"ELEMENT_SET_NO":999,"REV_AT_EPOCH":254,"BSTAR":-0.0057676,"MEAN_MOTION_DOT":-0.01428097,"MEAN_MOTION_DDOT":0},{"OBJECT_NAME":"STARLINK-36902","OBJECT_ID":"2026-041D","EPOCH":"2026-03-10T18:00:01.999296","MEAN_MOTION":15.88802542,"ECCENTRICITY":5.7e-5,"INCLINATION":53.1592,"RA_OF_ASC_NODE":56.8723,"ARG_OF_PERICENTER":101.2719,"MEAN_ANOMALY":317.3507,"EPHEMERIS_TYPE":0,"CLASSIFICATION_TYPE":"U","NORAD_CAT_ID":68043,"ELEMENT_SET_NO":999,"REV_AT_EPOCH":254,"BSTAR":-0.0059056,"MEAN_MOTION_DOT":-0.01479801,"MEAN_MOTION_DDOT":0},{"OBJECT_NAME":"STARLINK-36966","OBJECT_ID":"2026-041E","EPOCH":"2026-03-10T18:00:01.999296","MEAN_MOTION":15.89046739,"ECCENTRICITY":6.04e-5,"INCLINATION":53.159,"RA_OF_ASC_NODE":56.8597,"ARG_OF_PERICENTER":91.5461,"MEAN_ANOMALY":333.1293,"EPHEMERIS_TYPE":0,"CLASSIFICATION_TYPE":"U","NORAD_CAT_ID":68044,"ELEMENT_SET_NO":999,"REV_AT_EPOCH":254,"BSTAR":-0.0055423,"MEAN_MOTION_DOT":-0.01415838,"MEAN_MOTION_DDOT":0},{"OBJECT_NAME":"STARLINK-36864","OBJECT_ID":"2026-041F","EPOCH":"2026-03-10T18:00:01.999296","MEAN_MOTION":15.8889649,"ECCENTRICITY":6.47e-5,"INCLINATION":53.1589,"RA_OF_ASC_NODE":56.8657,"ARG_OF_PERICENTER":99.167,"MEAN_ANOMALY":322.7133,"EPHEMERIS_TYPE":0,"CLASSIFICATION_TYPE":"U","NORAD_CAT_ID":68045,"ELEMENT_SET_NO":999,"REV_AT_EPOCH":254,"BSTAR":-0.0056107,"MEAN_MOTION_DOT":-0.0142158,"MEAN_MOTION_DDOT":0}]
