STARLINK-36942          
1 68030U 26040R   26069.75002314 -.01073215  39316-3 -16451-2 0  9999
2 68030  97.2769  18.0376 0001127  82.0516  72.5939 16.04408726  2596
STARLINK-36913          
1 68031U 26040S   26069.75002314 -.01080170  39847-3 -16436-2 0  9990
2 68031  97.2768  18.0387 0001312  93.7021  63.9490 16.04532090  2592
STARLINK-36935          
1 68032U 26040T   26069.75002314 -.01053145  38402-3 -15244-2 0  9995
2 68032  97.2764  18.0471 0001063  87.3782  90.8309 16.05357032  2690
STARLINK-36947          
1 68033U 26040U   26069.75002314 -.01047650  37692-3 -15862-2 0  9996
2 68033  97.2767  18.0398 0001091  83.7749  76.3576 16.04610767  2596
STARLINK-36939          
1 68034U 26040V   26069.75002314 -.01054250  38346-3 -15523-2 0  9992
2 68034  97.2772  18.0445 0001115  93.1699  78.2129 16.05075036  2592
STARLINK-36943          
1 68035U 26040W   26069.75002314 -.01069470  39656-3 -15201-2 0  9991
2 68035  97.2774  18.0530 0001032  89.1187 100.4702 16.05658676  2643
STARLINK-36906          
1 68036U 26040X   26069.75002314 -.01069702  39344-3 -15848-2 0  9991
2 68036  97.2768  18.0434 0001057  81.9797  86.8280 16.04975022  2592
STARLINK-36388          
1 68037U 26040Y   26069.75002314 -.01052346  38287-3 -15356-2 0  9997
2 68037  97.2772  18.0461 0001007  82.9419  92.1154 16.05223209  2544
STARLINK-36895          
1 68038U 26040Z   26069.75002314 -.01063466  38867-3 -15865-2 0  9992
2 68038  97.2760  18.0418 0001050  86.0487  79.9603 16.04859170  2590
STARLINK-36373          
1 68039U 26040AA  26069.75002314 -.01067695  39092-3 -16054-2 0  9993
2 68039  97.2762  18.0407 0001077  77.8503  84.8584 16.04728403  2549
STARLINK-36711          
1 68040U 26041A   26069.75002314 -.01431069  00000+0 -58230-2 0  9991
2 68040  53.1591  56.8911 0000572  89.5581 320.2138 15.88316622  2546
STARLINK-36825          
1 68041U 26041B   26069.75002314 -.01420310  00000+0 -56881-2 0  9999
2 68041  53.1587  56.8776 0000524  95.8309 320.0124 15.88608220  2547
STARLINK-36925          
1 68042U 26041C   26069.75002314 -.01428097  00000+0 -57676-2 0  9993
2 68042  53.1588  56.8842 0000454  92.9765 319.9283 15.88459360  2541
STARLINK-36902          
1 68043U 26041D   26069.75002314 -.01479801  00000+0 -59056-2 0  9997
2 68043  53.1592  56.8723 0000570 101.2719 317.3507 15.88802542  2542
STARLINK-36966          
1 68044U 26041E   26069.75002314 -.01415838  00000+0 -55423-2 0  9992
2 68044  53.1590  56.8597 0000604  91.5461 333.1293 15.89046739  2540
STARLINK-36864          
1 68045U 26041F   26069.75002314 -.01421580  00000+0 -56107-2 0  9994
2 68045  53.1589  56.8657 0000647  99.1670 322.7133 15.88896490  2542
